{
  "type": "FeatureCollection",
  "features": [
    {
      "type": "Feature",
      "properties": {
        "norad_id": 29486,
        "name": "GPS BIIRM-2 (PRN 31)",
        "group": "gps-ops",
        "lat": 33.730543408309664,
        "lon": -49.186329405739315,
        "alt_km": 20152.38470473618,
        "timestamp": "2025-12-04T05:42:43.631895+00:00",
        "meta_object_name": "GPS BIIRM-2 (PRN 31)",
        "meta_object_id": "2006-042A",
        "meta_epoch": "2025-12-03T19:13:38.940960",
        "meta_mean_motion": 2.00554392,
        "meta_eccentricity": 0.01073584,
        "meta_inclination": 54.6928,
        "meta_ra_of_asc_node": 159.0956,
        "meta_arg_of_pericenter": 51.7428,
        "meta_mean_anomaly": 128.6988,
        "meta_ephemeris_type": 0,
        "meta_classification_type": "U",
        "meta_norad_cat_id": 29486,
        "meta_element_set_no": 999,
        "meta_rev_at_epoch": 14047,
        "meta_bstar": 0,
        "meta_mean_motion_dot": 1e-06,
        "meta_mean_motion_ddot": 0,
        "tle_line1": "1 29486U 06042A   25337.80114515  .00000100  00000+0  00000+0 0  9995",
        "tle_line2": "2 29486  54.6928 159.0956 0107358  51.7428 128.6988  2.00554392140479"
      },
      "geometry": {
        "type": "Point",
        "coordinates": [
          -49.186329405739315,
          33.730543408309664
        ]
      }
    },
    {
      "type": "Feature",
      "properties": {
        "norad_id": 29601,
        "name": "GPS BIIRM-3 (PRN 12)",
        "group": "gps-ops",
        "lat": -11.32494463245558,
        "lon": 49.807145501968,
        "alt_km": 20247.292125687472,
        "timestamp": "2025-12-04T05:42:43.631906+00:00",
        "meta_object_name": "GPS BIIRM-3 (PRN 12)",
        "meta_object_id": "2006-052A",
        "meta_epoch": "2025-12-03T11:22:11.769312",
        "meta_mean_motion": 2.00572797,
        "meta_eccentricity": 0.00875469,
        "meta_inclination": 54.9733,
        "meta_ra_of_asc_node": 221.766,
        "meta_arg_of_pericenter": 87.3435,
        "meta_mean_anomaly": 273.7468,
        "meta_ephemeris_type": 0,
        "meta_classification_type": "U",
        "meta_norad_cat_id": 29601,
        "meta_element_set_no": 999,
        "meta_rev_at_epoch": 13948,
        "meta_bstar": 0,
        "meta_mean_motion_dot": 6.2e-07,
        "meta_mean_motion_ddot": 0,
        "tle_line1": "1 29601U 06052A   25337.47374733  .00000062  00000+0  00000+0 0  9995",
        "tle_line2": "2 29601  54.9733 221.7660 0087546  87.3435 273.7468  2.00572797139486"
      },
      "geometry": {
        "type": "Point",
        "coordinates": [
          49.807145501968,
          -11.32494463245558
        ]
      }
    },
    {
      "type": "Feature",
      "properties": {
        "norad_id": 32260,
        "name": "GPS BIIRM-4 (PRN 15)",
        "group": "gps-ops",
        "lat": -22.7244902464085,
        "lon": 70.35914204673776,
        "alt_km": 20354.02224338315,
        "timestamp": "2025-12-04T05:42:43.631918+00:00",
        "meta_object_name": "GPS BIIRM-4 (PRN 15)",
        "meta_object_id": "2007-047A",
        "meta_epoch": "2025-12-02T18:46:05.230272",
        "meta_mean_motion": 2.00564824,
        "meta_eccentricity": 0.01643753,
        "meta_inclination": 53.9483,
        "meta_ra_of_asc_node": 88.1698,
        "meta_arg_of_pericenter": 85.1293,
        "meta_mean_anomaly": 276.722,
        "meta_ephemeris_type": 0,
        "meta_classification_type": "U",
        "meta_norad_cat_id": 32260,
        "meta_element_set_no": 999,
        "meta_rev_at_epoch": 13287,
        "meta_bstar": 0,
        "meta_mean_motion_dot": -1.7e-07,
        "meta_mean_motion_ddot": 0,
        "tle_line1": "1 32260U 07047A   25336.78200498 -.00000017  00000+0  00000+0 0  9995",
        "tle_line2": "2 32260  53.9483  88.1698 0164375  85.1293 276.7220  2.00564824132879"
      },
      "geometry": {
        "type": "Point",
        "coordinates": [
          70.35914204673776,
          -22.7244902464085
        ]
      }
    },
    {
      "type": "Feature",
      "properties": {
        "norad_id": 32384,
        "name": "GPS BIIRM-5 (PRN 29)",
        "group": "gps-ops",
        "lat": 53.51082869969528,
        "lon": 32.00236108525627,
        "alt_km": 20133.136870835464,
        "timestamp": "2025-12-04T05:42:43.631929+00:00",
        "meta_object_name": "GPS BIIRM-5 (PRN 29)",
        "meta_object_id": "2007-062A",
        "meta_epoch": "2025-12-02T20:24:02.738880",
        "meta_mean_motion": 2.00576658,
        "meta_eccentricity": 0.00322118,
        "meta_inclination": 55.191,
        "meta_ra_of_asc_node": 282.0427,
        "meta_arg_of_pericenter": 162.849,
        "meta_mean_anomaly": 16.9412,
        "meta_ephemeris_type": 0,
        "meta_classification_type": "U",
        "meta_norad_cat_id": 32384,
        "meta_element_set_no": 999,
        "meta_rev_at_epoch": 13157,
        "meta_bstar": 0,
        "meta_mean_motion_dot": -4.3e-07,
        "meta_mean_motion_ddot": 0,
        "tle_line1": "1 32384U 07062A   25336.85003170 -.00000043  00000+0  00000+0 0  9994",
        "tle_line2": "2 32384  55.1910 282.0427 0032211 162.8490  16.9412  2.00576658131576"
      },
      "geometry": {
        "type": "Point",
        "coordinates": [
          32.00236108525627,
          53.51082869969528
        ]
      }
    },
    {
      "type": "Feature",
      "properties": {
        "norad_id": 32711,
        "name": "GPS BIIRM-6 (PRN 07)",
        "group": "gps-ops",
        "lat": 22.537629814925484,
        "lon": 174.96245224698623,
        "alt_km": 20605.530352269096,
        "timestamp": "2025-12-04T05:42:43.631941+00:00",
        "meta_object_name": "GPS BIIRM-6 (PRN 07)",
        "meta_object_id": "2008-012A",
        "meta_epoch": "2025-12-03T04:49:23.446848",
        "meta_mean_motion": 2.00565082,
        "meta_eccentricity": 0.02020764,
        "meta_inclination": 54.4757,
        "meta_ra_of_asc_node": 157.7537,
        "meta_arg_of_pericenter": 244.8436,
        "meta_mean_anomaly": 113.0855,
        "meta_ephemeris_type": 0,
        "meta_classification_type": "U",
        "meta_norad_cat_id": 32711,
        "meta_element_set_no": 999,
        "meta_rev_at_epoch": 12982,
        "meta_bstar": 0,
        "meta_mean_motion_dot": 1.08e-06,
        "meta_mean_motion_ddot": 0,
        "tle_line1": "1 32711U 08012A   25337.20096582  .00000108  00000+0  00000+0 0  9994",
        "tle_line2": "2 32711  54.4757 157.7537 0202076 244.8436 113.0855  2.00565082129824"
      },
      "geometry": {
        "type": "Point",
        "coordinates": [
          174.96245224698623,
          22.537629814925484
        ]
      }
    },
    {
      "type": "Feature",
      "properties": {
        "norad_id": 35752,
        "name": "GPS BIIRM-8 (PRN 05)",
        "group": "gps-ops",
        "lat": 36.928775263926134,
        "lon": 65.47928291773076,
        "alt_km": 20064.68869316664,
        "timestamp": "2025-12-04T05:42:43.631952+00:00",
        "meta_object_name": "GPS BIIRM-8 (PRN 05)",
        "meta_object_id": "2009-043A",
        "meta_epoch": "2025-12-01T04:42:32.815296",
        "meta_mean_motion": 2.00566259,
        "meta_eccentricity": 0.00521242,
        "meta_inclination": 56.0822,
        "meta_ra_of_asc_node": 35.2386,
        "meta_arg_of_pericenter": 82.0997,
        "meta_mean_anomaly": 288.3285,
        "meta_ephemeris_type": 0,
        "meta_classification_type": "U",
        "meta_norad_cat_id": 35752,
        "meta_element_set_no": 999,
        "meta_rev_at_epoch": 11939,
        "meta_bstar": 0,
        "meta_mean_motion_dot": -6.6e-07,
        "meta_mean_motion_ddot": 0,
        "tle_line1": "1 35752U 09043A   25335.19621314 -.00000066  00000+0  00000+0 0  9994",
        "tle_line2": "2 35752  56.0822  35.2386 0052124  82.0997 288.3285  2.00566259119397"
      },
      "geometry": {
        "type": "Point",
        "coordinates": [
          65.47928291773076,
          36.928775263926134
        ]
      }
    },
    {
      "type": "Feature",
      "properties": {
        "norad_id": 36585,
        "name": "GPS BIIF-1  (PRN 25)",
        "group": "gps-ops",
        "lat": 10.642122888316162,
        "lon": 28.667486248252917,
        "alt_km": 20246.828607432042,
        "timestamp": "2025-12-04T05:42:43.631963+00:00",
        "meta_object_name": "GPS BIIF-1  (PRN 25)",
        "meta_object_id": "2010-022A",
        "meta_epoch": "2025-12-03T06:19:07.093056",
        "meta_mean_motion": 2.00552613,
        "meta_eccentricity": 0.0125712,
        "meta_inclination": 54.3021,
        "meta_ra_of_asc_node": 216.4561,
        "meta_arg_of_pericenter": 64.9696,
        "meta_mean_anomaly": 116.7502,
        "meta_ephemeris_type": 0,
        "meta_classification_type": "U",
        "meta_norad_cat_id": 36585,
        "meta_element_set_no": 999,
        "meta_rev_at_epoch": 11366,
        "meta_bstar": 0,
        "meta_mean_motion_dot": 7.1e-07,
        "meta_mean_motion_ddot": 0,
        "tle_line1": "1 36585U 10022A   25337.26327654  .00000071  00000+0  00000+0 0  9993",
        "tle_line2": "2 36585  54.3021 216.4561 0125712  64.9696 116.7502  2.00552613113660"
      },
      "geometry": {
        "type": "Point",
        "coordinates": [
          28.667486248252917,
          10.642122888316162
        ]
      }
    }
  ]
}